KAITUO 1B               
1 40912U 15049P   17300.98857025  .00002442  00000-0  12270-3 0  9997
2 40912  97.4521 306.7123 0017287  98.5284 321.3379 15.18096241116439
TIANWANG 1C (TW-1C)     
1 40926U 15051B   17301.07476363  .00014811  00000-0  31314-3 0  9991
2 40926  97.2155 339.6898 0012603  52.5016   2.2942 15.45165802117420
TIANWANG 1B (TW-1B)     
1 40927U 15051C   17301.17444682  .00014448  00000-0  31758-3 0  9990
2 40927  97.2247 339.7444 0012679  62.4167 340.1767 15.44020073117373
TIANWANG 1A (TW-1A)     
1 40928U 15051D   17301.06008815  .00006451  00000-0  17854-3 0  9999
2 40928  97.2145 334.4756 0014186  80.0643 334.2493 15.37236293117105
LAPAN-A2 (IO-86)        
1 40931U 15052B   17300.63543343  .00000805  00000-0  23065-4 0  9995
2 40931   6.0020   8.3291 0013962 319.7825  40.1286 14.76551743112576
LQSAT                   
1 40958U 15057A   17301.18817768  .00000079  00000-0  20016-4 0  9991
2 40958  97.9670  14.1059 0018579   4.9084 355.2310 14.72995904110697
CHUBUSAT-2              
1 41338U 16012B   17300.52878665  .00000714  00000-0  49373-4 0  9999
2 41338  31.0046 351.6939 0013953 289.7587  70.1543 14.99848719 92874
CHUBUSAT-3              
1 41339U 16012C   17301.17114818  .00000621  00000-0  41842-4 0  9995
2 41339  31.0112 346.5512 0013848 301.9893  57.9391 15.00046498 92959
OUFTI-1                 
1 41458U 16025C   17301.08875801  .00003347  00000-0  18020-3 0  9996
2 41458  98.1665 346.2320 0171892 205.0269 154.2596 15.03796870 82548
E-ST@R-II               
1 41459U 16025D   17301.12531537  .00003409  00000-0  18371-3 0  9995
2 41459  98.1722 346.1956 0172966 205.0571 154.2206 15.03614034 82545
AAUSAT 4                
1 41460U 16025E   17301.10256602  .00003632  00000-0  19515-3 0  9991
2 41460  98.1629 346.3693 0164491 202.7333 156.6561 15.04711750 82574
NUSAT 1 (LO-87)         
1 41557U 16033B   17301.21222094  .00002991  00000-0  11343-3 0  9995
2 41557  97.4546  20.7062 0012499 255.8073 104.1778 15.27603912 78730
BEESAT-4                
1 41619U 16040W   17300.75527617  .00003362  00000-0  15306-3 0  9995
2 41619  97.4474   1.7945 0010925 331.7261  28.3380 15.21337914 62743
PRATHAM                 
1 41783U 16059A   17300.17351761  .00000152  00000-0  38927-4 0  9997
2 41783  98.1519   0.0766 0034901 106.5493 253.9547 14.62872587 57896
ALSAT 1N                
1 41789U 16059G   17301.14606703  .00000147  00000-0  37086-4 0  9999
2 41789  98.1528   1.7978 0029884  96.8140 263.6473 14.64092371 58062
NAYIF-1 (EO-88)         
1 42017U 17008BX  17300.80352916  .00003663  00000-0  15595-3 0  9991
2 42017  97.4804   1.9377 0008148 112.2431 247.9671 15.23601158 38672
LILACSAT-1              
1 42725U 98067ME  17300.89853853  .00027400  00000-0  34274-3 0  9996
2 42725  51.6381  93.9419 0005269  87.8761 272.2836 15.59585127 24150
MAX VALIER SAT          
1 42778U 17036P   17300.75789937  .00002524  00000-0  11759-3 0  9990
2 42778  97.4367 358.9579 0013575 157.1560 203.0282 15.20742312 19170
